start=new Date('2022-12-26T00:00:00.000Z').valueOf();
sats=[{"CLASSIFICATION_TYPE":"U","MEAN_MOTION_DOT":"0.00001038","INCLINATION":"53.2159","RCS_SIZE":"LARGE","PERIAPSIS":"537.798","MEAN_MOTION":"15.08842581","GP_ID":"221452454","COUNTRY_CODE":"US","RA_OF_ASC_NODE":"171.0785","REF_FRAME":"TEME","MEAN_ELEMENT_THEORY":"SGP4","ECCENTRICITY":"0.00028040","MEAN_MOTION_DDOT":"0.0000000000000","TLE_LINE2":"2 51741  53.2159 171.0785 0002804  43.3946 316.7267 15.08842581 46944","NORAD_CAT_ID":"51741","REV_AT_EPOCH":"4694","OBJECT_ID":"2022-016AD","DECAY_DATE":null,"SITE":"AFETR","PERIOD":"95.437","ELEMENT_SET_NO":"999","EPOCH":"2022-12-25T18:36:14.699232","FILE":"3722315","LAUNCH_DATE":"2022-02-21","SEMIMAJOR_AXIS":"6917.872","CENTER_NAME":"EARTH","OBJECT_TYPE":"PAYLOAD","OBJECT_NAME":"STARLINK-3520","TLE_LINE1":"1 51741U 22016AD  22359.77517013  .00001038  00000-0  83339-4 0  9993","APOAPSIS":"541.677","BSTAR":"0.00008333900000","TIME_SYSTEM":"UTC","ARG_OF_PERICENTER":"43.3946","MEAN_ANOMALY":"316.7267","EPHEMERIS_TYPE":"0"},{"PERIOD":"95.438","DECAY_DATE":null,"SITE":"AFETR","OBJECT_ID":"2022-016AE","ELEMENT_SET_NO":"999","EPOCH":"2022-12-25T16:39:40.207104","TLE_LINE2":"2 51742  53.2184 171.4381 0003091  46.5773 313.5476 15.08837346 46930","NORAD_CAT_ID":"51742","REV_AT_EPOCH":"4693","CENTER_NAME":"EARTH","OBJECT_TYPE":"PAYLOAD","FILE":"3722315","SEMIMAJOR_AXIS":"6917.889","LAUNCH_DATE":"2022-02-21","ARG_OF_PERICENTER":"46.5773","OBJECT_NAME":"STARLINK-3521","TLE_LINE1":"1 51742U 22016AE  22359.69421536 -.00000146  00000-0  89419-5 0  9995","APOAPSIS":"541.892","TIME_SYSTEM":"UTC","BSTAR":"0.00000894190000","MEAN_ANOMALY":"313.5476","EPHEMERIS_TYPE":"0","MEAN_MOTION_DOT":"-0.00000146","INCLINATION":"53.2184","RCS_SIZE":"LARGE","PERIAPSIS":"537.615","CLASSIFICATION_TYPE":"U","MEAN_MOTION":"15.08837346","COUNTRY_CODE":"US","RA_OF_ASC_NODE":"171.4381","GP_ID":"221452704","MEAN_ELEMENT_THEORY":"SGP4","MEAN_MOTION_DDOT":"0.0000000000000","ECCENTRICITY":"0.00030910","REF_FRAME":"TEME"},{"TLE_LINE1":"1 51743U 22016AF  22359.85339209 -.00001790  00000-0 -94349-4 0  9993","APOAPSIS":"542.049","BSTAR":"-0.00009434900000","TIME_SYSTEM":"UTC","OBJECT_NAME":"STARLINK-3512","ARG_OF_PERICENTER":"49.6314","EPHEMERIS_TYPE":"0","MEAN_ANOMALY":"310.4966","REV_AT_EPOCH":"4709","TLE_LINE2":"2 51743  53.2167 160.7132 0003307  49.6314 310.4966 15.08834820 47094","NORAD_CAT_ID":"51743","EPOCH":"2022-12-25T20:28:53.076576","SITE":"AFETR","DECAY_DATE":null,"OBJECT_ID":"2022-016AF","PERIOD":"95.438","ELEMENT_SET_NO":"999","SEMIMAJOR_AXIS":"6917.896","LAUNCH_DATE":"2022-02-21","FILE":"3722315","OBJECT_TYPE":"PAYLOAD","CENTER_NAME":"EARTH","GP_ID":"221452956","RA_OF_ASC_NODE":"160.7132","COUNTRY_CODE":"US","REF_FRAME":"TEME","ECCENTRICITY":"0.00033070","MEAN_MOTION_DDOT":"0.0000000000000","MEAN_ELEMENT_THEORY":"SGP4","CLASSIFICATION_TYPE":"U","RCS_SIZE":"LARGE","INCLINATION":"53.2167","PERIAPSIS":"537.473","MEAN_MOTION_DOT":"-0.00001790","MEAN_MOTION":"15.08834820"},{"GP_ID":"221453705","RA_OF_ASC_NODE":"171.7678","COUNTRY_CODE":"US","REF_FRAME":"TEME","MEAN_MOTION_DDOT":"0.0000000000000","ECCENTRICITY":"0.00031890","MEAN_ELEMENT_THEORY":"SGP4","CLASSIFICATION_TYPE":"U","PERIAPSIS":"537.537","INCLINATION":"53.2166","RCS_SIZE":"LARGE","MEAN_MOTION_DOT":"0.00000320","MEAN_MOTION":"15.08840777","TIME_SYSTEM":"UTC","APOAPSIS":"541.949","BSTAR":"0.00003824600000","TLE_LINE1":"1 51744U 22016AG  22359.62157161  .00000320  00000-0  38246-4 0  9994","OBJECT_NAME":"STARLINK-3452","ARG_OF_PERICENTER":"42.7474","EPHEMERIS_TYPE":"0","MEAN_ANOMALY":"317.3765","REV_AT_EPOCH":"4692","NORAD_CAT_ID":"51744","TLE_LINE2":"2 51744  53.2166 171.7678 0003189  42.7474 317.3765 15.08840777 46922","EPOCH":"2022-12-25T14:55:03.787104","ELEMENT_SET_NO":"999","OBJECT_ID":"2022-016AG","DECAY_DATE":null,"SITE":"AFETR","PERIOD":"95.438","LAUNCH_DATE":"2022-02-21","SEMIMAJOR_AXIS":"6917.878","FILE":"3722315","OBJECT_TYPE":"PAYLOAD","CENTER_NAME":"EARTH"},{"RA_OF_ASC_NODE":"170.8136","COUNTRY_CODE":"US","GP_ID":"221451955","ECCENTRICITY":"0.00033710","MEAN_MOTION_DDOT":"0.0000000000000","MEAN_ELEMENT_THEORY":"SGP4","REF_FRAME":"TEME","PERIAPSIS":"537.406","RCS_SIZE":"LARGE","INCLINATION":"53.2161","MEAN_MOTION_DOT":"0.00000178","CLASSIFICATION_TYPE":"U","MEAN_MOTION":"15.08842414","ARG_OF_PERICENTER":"44.8922","BSTAR":"0.00002932700000","APOAPSIS":"542.070","TIME_SYSTEM":"UTC","TLE_LINE1":"1 51745U 22016AH  22359.83405876  .00000178  00000-0  29327-4 0  9998","OBJECT_NAME":"STARLINK-3449","EPHEMERIS_TYPE":"0","MEAN_ANOMALY":"315.2342","EPOCH":"2022-12-25T20:01:02.676864","ELEMENT_SET_NO":"999","PERIOD":"95.437","DECAY_DATE":null,"SITE":"AFETR","OBJECT_ID":"2022-016AH","REV_AT_EPOCH":"4695","NORAD_CAT_ID":"51745","TLE_LINE2":"2 51745  53.2161 170.8136 0003371  44.8922 315.2342 15.08842414 46952","OBJECT_TYPE":"PAYLOAD","CENTER_NAME":"EARTH","SEMIMAJOR_AXIS":"6917.873","LAUNCH_DATE":"2022-02-21","FILE":"3722315"},{"ARG_OF_PERICENTER":"44.0529","TLE_LINE1":"1 51746U 22016AJ  22359.84968125  .00000382  00000-0  42136-4 0  9991","APOAPSIS":"541.972","TIME_SYSTEM":"UTC","BSTAR":"0.00004213600000","OBJECT_NAME":"STARLINK-3502","EPHEMERIS_TYPE":"0","MEAN_ANOMALY":"316.0722","EPOCH":"2022-12-25T20:23:32.460000","DECAY_DATE":null,"SITE":"AFETR","OBJECT_ID":"2022-016AJ","PERIOD":"95.437","ELEMENT_SET_NO":"999","REV_AT_EPOCH":"4821","TLE_LINE2":"2 51746  53.2162 160.7397 0003251  44.0529 316.0722 15.08847372 48213","NORAD_CAT_ID":"51746","OBJECT_TYPE":"PAYLOAD","CENTER_NAME":"EARTH","SEMIMAJOR_AXIS":"6917.858","LAUNCH_DATE":"2022-02-21","FILE":"3722273","RA_OF_ASC_NODE":"160.7397","COUNTRY_CODE":"US","GP_ID":"221428743","ECCENTRICITY":"0.00032510","MEAN_MOTION_DDOT":"0.0000000000000","MEAN_ELEMENT_THEORY":"SGP4","REF_FRAME":"TEME","RCS_SIZE":"LARGE","INCLINATION":"53.2162","PERIAPSIS":"537.474","MEAN_MOTION_DOT":"0.00000382","CLASSIFICATION_TYPE":"U","MEAN_MOTION":"15.08847372"},{"TLE_LINE2":"2 51747  53.2155 171.1629 0002782  32.8729 327.2435 15.08837031 46949","NORAD_CAT_ID":"51747","REV_AT_EPOCH":"4694","DECAY_DATE":null,"SITE":"AFETR","PERIOD":"95.438","OBJECT_ID":"2022-016AK","ELEMENT_SET_NO":"999","EPOCH":"2022-12-25T18:09:44.665344","FILE":"3722315","LAUNCH_DATE":"2022-02-21","SEMIMAJOR_AXIS":"6917.889","CENTER_NAME":"EARTH","OBJECT_TYPE":"PAYLOAD","OBJECT_NAME":"STARLINK-3446","TLE_LINE1":"1 51747U 22016AK  22359.75676696 -.00000849  00000-0 -35190-4 0  9993","BSTAR":"-0.00003519000000","APOAPSIS":"541.679","TIME_SYSTEM":"UTC","ARG_OF_PERICENTER":"32.8729","MEAN_ANOMALY":"327.2435","EPHEMERIS_TYPE":"0","CLASSIFICATION_TYPE":"U","MEAN_MOTION_DOT":"-0.00000849","INCLINATION":"53.2155","RCS_SIZE":"LARGE","PERIAPSIS":"537.830","MEAN_MOTION":"15.08837031","GP_ID":"221453455","COUNTRY_CODE":"US","RA_OF_ASC_NODE":"171.1629","REF_FRAME":"TEME","MEAN_ELEMENT_THEORY":"SGP4","ECCENTRICITY":"0.00027820","MEAN_MOTION_DDOT":"0.0000000000000"},{"MEAN_MOTION":"15.08840321","PERIAPSIS":"537.679","RCS_SIZE":"LARGE","INCLINATION":"53.2165","MEAN_MOTION_DOT":"0.00000543","CLASSIFICATION_TYPE":"U","MEAN_MOTION_DDOT":"0.0000000000000","ECCENTRICITY":"0.00029860","MEAN_ELEMENT_THEORY":"SGP4","REF_FRAME":"TEME","RA_OF_ASC_NODE":"161.6698","COUNTRY_CODE":"US","GP_ID":"221453207","OBJECT_TYPE":"PAYLOAD","CENTER_NAME":"EARTH","LAUNCH_DATE":"2022-02-21","SEMIMAJOR_AXIS":"6917.879","FILE":"3722315","EPOCH":"2022-12-25T15:26:48.039648","ELEMENT_SET_NO":"999","SITE":"AFETR","DECAY_DATE":null,"PERIOD":"95.438","OBJECT_ID":"2022-016AL","REV_AT_EPOCH":"4706","NORAD_CAT_ID":"51748","TLE_LINE2":"2 51748  53.2165 161.6698 0002986  42.1034 318.0187 15.08840321 47062","EPHEMERIS_TYPE":"0","MEAN_ANOMALY":"318.0187","ARG_OF_PERICENTER":"42.1034","APOAPSIS":"541.810","BSTAR":"0.00005223600000","TIME_SYSTEM":"UTC","TLE_LINE1":"1 51748U 22016AL  22359.64361157  .00000543  00000-0  52236-4 0  9994","OBJECT_NAME":"STARLINK-3501"},{"ARG_OF_PERICENTER":"47.1741","TLE_LINE1":"1 51749U 22016AM  22359.78718920 -.00000687  00000-0 -25030-4 0  9997","APOAPSIS":"541.685","TIME_SYSTEM":"UTC","BSTAR":"-0.00002503000000","OBJECT_NAME":"STARLINK-3451","EPHEMERIS_TYPE":"0","MEAN_ANOMALY":"312.9482","EPOCH":"2022-12-25T18:53:33.146880","SITE":"AFETR","DECAY_DATE":null,"PERIOD":"95.438","OBJECT_ID":"2022-016AM","ELEMENT_SET_NO":"999","REV_AT_EPOCH":"4694","TLE_LINE2":"2 51749  53.2155 171.0236 0002744  47.1741 312.9482 15.08826362 46943","NORAD_CAT_ID":"51749","OBJECT_TYPE":"PAYLOAD","CENTER_NAME":"EARTH","LAUNCH_DATE":"2022-02-21","SEMIMAJOR_AXIS":"6917.922","FILE":"3722315","RA_OF_ASC_NODE":"171.0236","COUNTRY_CODE":"US","GP_ID":"221452455","ECCENTRICITY":"0.00027440","MEAN_MOTION_DDOT":"0.0000000000000","MEAN_ELEMENT_THEORY":"SGP4","REF_FRAME":"TEME","RCS_SIZE":"LARGE","INCLINATION":"53.2155","PERIAPSIS":"537.889","MEAN_MOTION_DOT":"-0.00000687","CLASSIFICATION_TYPE":"U","MEAN_MOTION":"15.08826362"},{"EPOCH":"2022-12-25T20:02:22.963200","ELEMENT_SET_NO":"999","PERIOD":"95.438","DECAY_DATE":null,"SITE":"AFETR","OBJECT_ID":"2022-016AN","REV_AT_EPOCH":"4709","NORAD_CAT_ID":"51750","TLE_LINE2":"2 51750  53.2164 160.8122 0003249  49.5070 310.6205 15.08838349 47090","OBJECT_TYPE":"PAYLOAD","CENTER_NAME":"EARTH","SEMIMAJOR_AXIS":"6917.885","LAUNCH_DATE":"2022-02-21","FILE":"3722315","ARG_OF_PERICENTER":"49.5070","TIME_SYSTEM":"UTC","APOAPSIS":"541.998","BSTAR":"0.00003529800000","TLE_LINE1":"1 51750U 22016AN  22359.83498800  .00000273  00000-0  35298-4 0  9993","OBJECT_NAME":"STARLINK-3505","EPHEMERIS_TYPE":"0","MEAN_ANOMALY":"310.6205","PERIAPSIS":"537.503","RCS_SIZE":"LARGE","INCLINATION":"53.2164","MEAN_MOTION_DOT":"0.00000273","CLASSIFICATION_TYPE":"U","MEAN_MOTION":"15.08838349","RA_OF_ASC_NODE":"160.8122","COUNTRY_CODE":"US","GP_ID":"221452705","ECCENTRICITY":"0.00032490","MEAN_MOTION_DDOT":"0.0000000000000","MEAN_ELEMENT_THEORY":"SGP4","REF_FRAME":"TEME"}];
